<?xml version="1.0" encoding="UTF-8"?>
<ndm xmlns:xsi="http://www.w3.org/2001/XMLSchema-instance" xsi:noNamespaceSchemaLocation="https://sanaregistry.org/r/ndmxml_unqualified/ndmxml-2.0.0-master-2.0.xsd">
<omm id="CCSDS_OMM_VERS" version="2.0">
<header><CREATION_DATE/><ORIGINATOR/></header><body><segment><metadata><OBJECT_NAME>IRIDIUM 69</OBJECT_NAME><OBJECT_ID>1998-026A</OBJECT_ID><CENTER_NAME>EARTH</CENTER_NAME><REF_FRAME>TEME</REF_FRAME><TIME_SYSTEM>UTC</TIME_SYSTEM><MEAN_ELEMENT_THEORY>SGP4</MEAN_ELEMENT_THEORY></metadata><data><meanElements><EPOCH>2025-05-15T01:37:57.509472</EPOCH><MEAN_MOTION>14.40936054</MEAN_MOTION><ECCENTRICITY>.0004331</ECCENTRICITY><INCLINATION>86.3945</INCLINATION><RA_OF_ASC_NODE>109.4191</RA_OF_ASC_NODE><ARG_OF_PERICENTER>110.7418</ARG_OF_PERICENTER><MEAN_ANOMALY>249.4246</MEAN_ANOMALY></meanElements><tleParameters><EPHEMERIS_TYPE>0</EPHEMERIS_TYPE><CLASSIFICATION_TYPE>U</CLASSIFICATION_TYPE><NORAD_CAT_ID>25319</NORAD_CAT_ID><ELEMENT_SET_NO>999</ELEMENT_SET_NO><REV_AT_EPOCH>41853</REV_AT_EPOCH><BSTAR>.1322E-3</BSTAR><MEAN_MOTION_DOT>.444E-5</MEAN_MOTION_DOT><MEAN_MOTION_DDOT>0</MEAN_MOTION_DDOT></tleParameters></data></segment></body></omm>
<omm id="CCSDS_OMM_VERS" version="2.0">
<header><CREATION_DATE/><ORIGINATOR/></header><body><segment><metadata><OBJECT_NAME>IRIDIUM 71</OBJECT_NAME><OBJECT_ID>1998-026B</OBJECT_ID><CENTER_NAME>EARTH</CENTER_NAME><REF_FRAME>TEME</REF_FRAME><TIME_SYSTEM>UTC</TIME_SYSTEM><MEAN_ELEMENT_THEORY>SGP4</MEAN_ELEMENT_THEORY></metadata><data><meanElements><EPOCH>2025-05-14T20:54:12.143232</EPOCH><MEAN_MOTION>14.41130699</MEAN_MOTION><ECCENTRICITY>.0002611</ECCENTRICITY><INCLINATION>86.3944</INCLINATION><RA_OF_ASC_NODE>104.1975</RA_OF_ASC_NODE><ARG_OF_PERICENTER>138.7766</ARG_OF_PERICENTER><MEAN_ANOMALY>221.3631</MEAN_ANOMALY></meanElements><tleParameters><EPHEMERIS_TYPE>0</EPHEMERIS_TYPE><CLASSIFICATION_TYPE>U</CLASSIFICATION_TYPE><NORAD_CAT_ID>25320</NORAD_CAT_ID><ELEMENT_SET_NO>999</ELEMENT_SET_NO><REV_AT_EPOCH>41879</REV_AT_EPOCH><BSTAR>.13813E-3</BSTAR><MEAN_MOTION_DOT>.465E-5</MEAN_MOTION_DOT><MEAN_MOTION_DDOT>0</MEAN_MOTION_DDOT></tleParameters></data></segment></body></omm>
<omm id="CCSDS_OMM_VERS" version="2.0">
<header><CREATION_DATE/><ORIGINATOR/></header><body><segment><metadata><OBJECT_NAME>IRIDIUM 73</OBJECT_NAME><OBJECT_ID>1998-032C</OBJECT_ID><CENTER_NAME>EARTH</CENTER_NAME><REF_FRAME>TEME</REF_FRAME><TIME_SYSTEM>UTC</TIME_SYSTEM><MEAN_ELEMENT_THEORY>SGP4</MEAN_ELEMENT_THEORY></metadata><data><meanElements><EPOCH>2025-05-14T20:06:45.689184</EPOCH><MEAN_MOTION>14.51678092</MEAN_MOTION><ECCENTRICITY>.0002981</ECCENTRICITY><INCLINATION>86.4423</INCLINATION><RA_OF_ASC_NODE>60.9774</RA_OF_ASC_NODE><ARG_OF_PERICENTER>90.4235</ARG_OF_PERICENTER><MEAN_ANOMALY>269.7312</MEAN_ANOMALY></meanElements><tleParameters><EPHEMERIS_TYPE>0</EPHEMERIS_TYPE><CLASSIFICATION_TYPE>U</CLASSIFICATION_TYPE><NORAD_CAT_ID>25344</NORAD_CAT_ID><ELEMENT_SET_NO>999</ELEMENT_SET_NO><REV_AT_EPOCH>42572</REV_AT_EPOCH><BSTAR>.15607E-3</BSTAR><MEAN_MOTION_DOT>.646E-5</MEAN_MOTION_DOT><MEAN_MOTION_DDOT>0</MEAN_MOTION_DDOT></tleParameters></data></segment></body></omm>
<omm id="CCSDS_OMM_VERS" version="2.0">
<header><CREATION_DATE/><ORIGINATOR/></header><body><segment><metadata><OBJECT_NAME>IRIDIUM 82</OBJECT_NAME><OBJECT_ID>1998-051A</OBJECT_ID><CENTER_NAME>EARTH</CENTER_NAME><REF_FRAME>TEME</REF_FRAME><TIME_SYSTEM>UTC</TIME_SYSTEM><MEAN_ELEMENT_THEORY>SGP4</MEAN_ELEMENT_THEORY></metadata><data><meanElements><EPOCH>2025-05-15T00:44:27.574080</EPOCH><MEAN_MOTION>15.30560189</MEAN_MOTION><ECCENTRICITY>.0091124</ECCENTRICITY><INCLINATION>86.3653</INCLINATION><RA_OF_ASC_NODE>126.0218</RA_OF_ASC_NODE><ARG_OF_PERICENTER>63.8906</ARG_OF_PERICENTER><MEAN_ANOMALY>297.1683</MEAN_ANOMALY></meanElements><tleParameters><EPHEMERIS_TYPE>0</EPHEMERIS_TYPE><CLASSIFICATION_TYPE>U</CLASSIFICATION_TYPE><NORAD_CAT_ID>25467</NORAD_CAT_ID><ELEMENT_SET_NO>999</ELEMENT_SET_NO><REV_AT_EPOCH>41888</REV_AT_EPOCH><BSTAR>.82201E-3</BSTAR><MEAN_MOTION_DOT>.27707E-3</MEAN_MOTION_DOT><MEAN_MOTION_DDOT>0</MEAN_MOTION_DDOT></tleParameters></data></segment></body></omm>
</ndm>
