IRIDIUM 69              
1 25319U 98026A   25135.06802673  .00000444  00000+0  13220-3 0  9995
2 25319  86.3945 109.4191 0004331 110.7418 249.4246 14.40936054418533
IRIDIUM 71              
1 25320U 98026B   25134.87097388  .00000465  00000+0  13813-3 0  9995
2 25320  86.3944 104.1975 0002611 138.7766 221.3631 14.41130699418798
IRIDIUM 73              
1 25344U 98032C   25134.83802881  .00000646  00000+0  15607-3 0  9990
2 25344  86.4423  60.9774 0002981  90.4235 269.7312 14.51678092425726
IRIDIUM 82              
1 25467U 98051A   25135.03087470  .00027707  00000+0  82201-3 0  9990
2 25467  86.3653 126.0218 0091124  63.8906 297.1683 15.30560189418889
